satname,norad_id,inclination_deg,eccentricity,mean_motion_rev_per_day,perigee_km,apogee_km,l1,l2
STARLINK-1284,45390,53.0544,0.0001356,15.09185459,537.7497390076633,539.625581855571,1 45390U 20019AG  26006.33334491  .00363674  00000+0  21514-1 0  9999,2 45390  53.0544  66.5194 0001356  88.3659 358.5908 15.09185459  5751
STARLINK-1297,45395,53.0551,0.0001648,15.06422323,546.0018558358433,548.2844281706475,1 45395U 20019AM  26006.15824651  .00010723  00000+0  73720-3 0  9998,2 45395  53.0551  67.3353 0001648  80.9789 279.1386 15.06422323319764
STARLINK-1307,45397,53.0529,0.0001179,15.11098136,532.0349620571606,533.6645727369132,1 45397U 20019AP  26006.33334491  .01644651  00000+0  88975-1 0  9998,2 45397  53.0529  66.4998 0001179 105.5381 190.6199 15.11098136  5798
STARLINK-1255,45399,53.0478,0.0004069,15.41807729,437.9994939618091,443.54872382222584,1 45399U 20019AR  26006.31330582  .00086301  00000+0  19931-2 0  9993,2 45399  53.0478  40.3790 0004069  46.0369 314.0970 15.41807729320787
STARLINK-1260,45404,53.0547,0.0001472,15.06403537,546.1813078518853,548.2201272759366,1 45404U 20019AW  26006.28450161  .00006680  00000+0  46688-3 0  9994,2 45404  53.0547  56.7654 0001472  77.5894 282.5260 15.06403537320453
STARLINK-1263,45405,53.0523,0.0001732,15.06397223,546.0205972120311,548.4195409007525,1 45405U 20019AX  26006.13706660  .00005921  00000+0  41609-3 0  9992,2 45405  53.0523  57.4306 0001732 101.2378 258.8806 15.06397223320435
STARLINK-1265,45406,53.0536,0.0001516,15.06400567,546.1599375875494,548.2597027434231,1 45406U 20019AY  26006.27713099  .00006175  00000+0  43306-3 0  9990,2 45406  53.0536  56.8008 0001516  74.8513 285.2643 15.06400567320459
STARLINK-1278,45408,53.0502,0.0003787,15.43899344,432.03406430043196,437.19404194806793,1 45408U 20019BA  26005.50195387  .00088941  00000+0  19140-2 0  9990,2 45408  53.0502  73.3276 0003787 279.7262  80.3315 15.43899344320168
STARLINK-1296,45412,53.0543,0.000158,15.06405494,546.1005172590276,548.2889220824436,1 45412U 20019BE  26006.28081589  .00006807  00000+0  47538-3 0  9993,2 45412  53.0543  56.7833 0001580  81.0193 279.0975 15.06405494320457
STARLINK-1298,45413,53.0427,0.0006049,15.68440191,359.2849757461272,367.44084233608464,1 45413U 20019BF  26006.33334491  .00182625  00000+0  15574-2 0  9990,2 45413  53.0427   7.4343 0006049  82.3253 140.0024 15.68440191  5952
STARLINK-1309,45414,53.0551,0.0001278,15.06390859,546.3545108022545,548.1246370545514,1 45414U 20019BG  26006.29554662 -.00000256  00000+0  17166-5 0  9992,2 45414  53.0551  56.7200 0001278  95.2929 264.8206 15.06390859320440
STARLINK-1316,45415,53.056,0.0001448,15.06401484,546.2042198831432,548.2097995083504,1 45415U 20019BH  26006.32136438 -.00001804  00000+0 -10222-3 0  9999,2 45415  53.0560  56.6084 0001448  55.2158 304.8967 15.06401484320489
STARLINK-1318,45416,53.0451,0.0005076,15.75357634,340.2017242041802,347.02564549944236,1 45416U 20019BJ  26006.33334491  .00116962  00000+0  75223-3 0  9992,2 45416  53.0451 355.5095 0005076  69.0201 141.4412 15.75357634  5972
STARLINK-1286,45417,53.0522,0.0001724,15.44254653,432.3946694936767,434.74334572509997,1 45417U 20019BK  26006.17705520  .00035145  00000+0  75809-3 0  9993,2 45417  53.0522  69.8202 0001724 309.0315  51.0537 15.44254653320546
STARLINK-1308,45419,53.0541,0.0001437,15.11631048,530.2325255374972,532.218276291519,1 45419U 20019BM  26006.33334491  .00019720  00000+0  11612-2 0  9990,2 45419  53.0541  86.4885 0001437  89.3991 180.5546 15.11631048  5796
STARLINK-1329,45531,53.0563,0.0004895,15.44654533,429.0595931271364,435.727102337567,1 45531U 20025A   26006.28199897  .00175101  00000+0  36233-2 0  9997,2 45531  53.0563  20.7074 0004895  39.4165 320.7196 15.44654533315777
STARLINK-1338,45532,53.0544,0.0002069,15.42511251,437.2901952095526,440.1110026079805,1 45532U 20025B   26006.29015925  .00090148  00000+0  20325-2 0  9990,2 45532  53.0544  23.4559 0002069  62.6809 297.4407 15.42511251315737
STARLINK-1350,45535,53.0746,0.0002042,15.34368358,461.4003697338412,464.1942072972706,1 45535U 20025E   26006.16451874  .00016246  00000+0  49138-3 0  9997,2 45535  53.0746 326.3922 0002042  94.5117 265.6117 15.34368358316555
STARLINK-1362,45538,53.055,0.0001472,15.06399131,546.1948095996231,548.233632999174,1 45538U 20025H   26006.30102864  .00003393  00000+0  24659-3 0  9998,2 45538  53.0550  26.4112 0001472  99.3211 260.7945 15.06399131315695
STARLINK-1368,45540,53.0544,0.0001292,15.0640301,546.3075788953684,548.0970865789477,1 45540U 20025K   26006.30569891  .00006486  00000+0  45386-3 0  9994,2 45540  53.0544  26.6701 0001292  87.0188 273.0948 15.06403010315685
STARLINK-1371,45542,53.0583,0.0001339,15.33623633,464.095442322111,465.92803755466684,1 45542U 20025M   26006.33334491  .01063234  00000+0  29551-1 0  9994,2 45542  53.0583  25.2199 0001339 100.3164 171.6177 15.33623633  5791
STARLINK-1372,45543,53.0559,0.000136,15.06392473,546.2927766639486,548.1764777465487,1 45543U 20025N   26006.31306495  .00002170  00000+0  16453-3 0  9996,2 45543  53.0559  26.6381 0001360  89.3885 270.7260 15.06392473314784
STARLINK-1373,45544,53.0562,0.0001509,15.29064626,477.57250631623265,479.64187171247704,1 45544U 20025P   26006.33334491  .01637689  00000+0  51889-1 0  9996,2 45544  53.0562  25.6166 0001509  90.3592  38.8541 15.29064626  5807
STARLINK-1294,45551,53.0405,0.0003247,15.74390459,344.1828145111158,348.5497069286266,1 45551U 20025W   26006.33334491  .00078003  00000+0  52720-3 0  9999,2 45551  53.0405 291.0266 0003247 155.5866  33.1826 15.74390459  5934
STARLINK-1325,45554,53.0449,0.0009161,15.8926801,298.2121497419439,310.45577303740083,1 45554U 20025Z   26006.33334491  .00267244  36980-4  91215-3 0  9992,2 45554  53.0449 280.0516 0009161 122.9903  22.5710 15.89268010  6008
STARLINK-1327,45555,53.0546,0.0001822,15.37625284,451.8891193513946,454.3784344224923,1 45555U 20025AA  26006.33334491  .01476339  00000+0  35559-1 0  9997,2 45555  53.0546   4.7840 0001822  81.2978 264.3512 15.37625284  5696
STARLINK-1356,45564,53.0576,0.0001535,15.0639765,546.1557182499637,548.2818024683938,1 45564U 20025AK  26006.30752702  .00003372  00000+0  24515-3 0  9997,2 45564  53.0576   6.6626 0001535  70.9807 289.1348 15.06397650315964
STARLINK-1357,45565,53.0594,0.0004342,15.44218421,430.717866895704,436.63324491925414,1 45565U 20025AL  26006.33334491  .00159180  00000+0  33509-2 0  9993,2 45565  53.0594 336.8301 0004342  63.5033 306.8362 15.44218421  5892
STARLINK-1361,45567,53.0561,0.000144,15.06409175,546.1861918843688,548.1806841705202,1 45567U 20025AN  26006.25961535  .00006896  00000+0  48127-3 0  9999,2 45567  53.0561   6.8787 0001440  93.2652 266.8502 15.06409175315962
STARLINK-1363,45568,53.0517,0.0008436,15.53594364,400.51841827315184,411.9650220498097,1 45568U 20025AP  26006.25633839  .00038473  00000+0  59703-3 0  9991,2 45568  53.0517 345.0367 0008436  10.8661 349.2529 15.53594364316269
STARLINK-1366,45569,53.0506,0.0010671,15.52495791,402.19881363126024,416.6848643894764,1 45569U 20025AQ  26006.33334491  .00178110  00000+0  27965-2 0  9990,2 45569  53.0506 345.2428 0010671  34.7594  47.4627 15.52495791  5918
STARLINK-1376,45570,53.0757,0.00016,15.11520534,530.4566277859767,532.6677315234665,1 45570U 20025AR  26006.33334491  .00963895  00000+0  52419-1 0  9995,2 45570  53.0757   6.5008 0001600  82.5192   3.8235 15.11520534  5703
STARLINK-1320,45572,53.0551,0.0007175,15.55147004,396.8607893173021,406.58989177598596,1 45572U 20025AT  26006.22159290  .00096586  00000+0  13962-2 0  9992,2 45572  53.0551 290.8009 0007175 121.3050 238.8664 15.55147004317048
STARLINK-1321,45573,53.0543,0.0001719,15.37435733,452.5208599265825,454.86964385478313,1 45573U 20025AU  26006.33334491  .01609016  00000+0  39291-1 0  9994,2 45573  53.0543 354.6253 0001719  75.3886 328.9346 15.37435733  5640
STARLINK-1328,45576,53.0453,0.0003004,16.08145977,249.94257665393434,253.92592346096808,1 45576U 20025AX  26006.10011758  .00718262  27974-3  84068-3 0  9990,2 45576  53.0453 296.8564 0003004 191.0702 169.0265 16.08145977316935
STARLINK-1331,45578,53.0574,0.0001256,15.0641103,546.3079332502102,548.0475723161089,1 45578U 20025AZ  26006.28632160  .00004834  00000+0  34308-3 0  9999,2 45578  53.0574 356.7566 0001256  85.8869 274.2263 15.06411030316110
STARLINK-1333,45580,53.058,8.45e-05,15.07323887,543.7964709443359,544.9663765579508,1 45580U 20025BB  26006.29175543  .00116713  00000+0  75352-2 0  9993,2 45580  53.0580   6.7219 0000845  58.1098 301.9974 15.07323887315969
STARLINK-1335,45581,53.054,0.0001292,15.06399334,546.3188438356992,548.1083544305156,1 45581U 20025BC  26006.29739942  .00004645  00000+0  33050-3 0  9993,2 45581  53.0540 356.7086 0001292  83.6858 276.4278 15.06399334316109
STARLINK-1337,45582,53.0556,0.000207,15.06434589,545.6720244556363,548.539074871197,1 45582U 20025BD  26006.25315694  .00016773  00000+0  11411-2 0  9995,2 45582  53.0556 356.9082 0002070  91.2977 268.8249 15.06434589316090
STARLINK-1347,45586,53.0519,0.0004939,15.42930431,434.0996609415106,440.83211347349334,1 45586U 20025BH  26006.33334491  .00168915  00000+0  37081-2 0  9991,2 45586  53.0519 327.7739 0004939  75.0910  48.2841 15.42930431  5833
STARLINK-1364,45589,53.0559,0.0001319,15.06411772,546.2620299727732,548.0889274046513,1 45589U 20025BL  26006.25684871  .00007856  00000+0  54554-3 0  9996,2 45589  53.0559 356.8922 0001319  90.7809 269.3332 15.06411772316093
STARLINK-1365,45590,53.0564,0.0001111,15.0639815,546.4478210729094,547.9866347823545,1 45590U 20025BM  26006.33885150 -.00001535  00000+0 -84213-4 0  9996,2 45590  53.0564  26.5204 0001111  76.5199 283.5914 15.06398150315704
STARLINK-1443,45660,53.0544,0.0001115,15.06391272,546.4661287835152,548.0104874772296,1 45660U 20035D   26006.19142654  .00002792  00000+0  20631-3 0  9991,2 45660  53.0544 347.1836 0001115  82.3987 277.7129 15.06391272309318
